NORAD_CAT_ID,OBJECT_NAME,OBJECT_TYPE,EPOCH,MEAN_MOTION,ECCENTRICITY,INCLINATION,RA_OF_ASC_NODE,ARG_OF_PERICENTER,MEAN_ANOMALY,BSTAR,MEAN_MOTION_DOT,MEAN_MOTION_DDOT,TLE_LINE0,TLE_LINE1,TLE_LINE2,SEMIMAJOR_AXIS,PERIOD,APOGEE,PERIGEE,DECAYED
53837.0,STARLINK-4776,PAYLOAD,2023-11-17 04:13:54,15.08828048,0.0001448,53.2157,130.509,86.1378,273.978,0.00019249,2.776e-05,0.0,0 STARLINK-4776,1 53837U 22114V   23321.17632374  .00002776  00000-0  19249-3 0  9990,2 53837  53.2157 130.5090 0001448  86.1378 273.9780 15.08828048 65493,6917.917,95.438,540.784,538.78,0.0
53837.0,STARLINK-4776,PAYLOAD,2023-11-17 20:07:45,15.08839043,0.000137,53.216,127.5351,86.2761,273.8388,5.1183e-05,5.27e-06,0.0,0 STARLINK-4776,1 53837U 22114V   23321.83872050  .00000527  00000-0  51183-4 0  9996,2 53837  53.2160 127.5351 0001370  86.2761 273.8388 15.08839043 65056,6917.883,95.438,540.696,538.801,0.0
53837.0,STARLINK-4776,PAYLOAD,2023-11-17 21:43:08,15.08839137,0.0001413,53.2159,127.2377,87.221,272.8944,4.9439e-05,4.99e-06,0.0,0 STARLINK-4776,1 53837U 22114V   23321.90496035  .00000499  00000-0  49439-4 0  9998,2 53837  53.2159 127.2377 0001413  87.2210 272.8944 15.08839137 65609,6917.883,95.438,540.726,538.771,0.0
53837.0,STARLINK-4776,PAYLOAD,2023-11-18 04:04:41,15.08836557,0.0001471,53.2158,126.0482,87.4654,272.6507,8.3191e-05,1.036e-05,0.0,0 STARLINK-4776,1 53837U 22114V   23322.16992158  .00001036  00000-0  83191-4 0  9995,2 53837  53.2158 126.0482 0001471  87.4654 272.6507 15.08836557 65640,6917.891,95.438,540.774,538.738,0.0
53837.0,STARLINK-4776,PAYLOAD,2023-11-18 19:58:32,15.08837148,0.0001377,53.2163,123.0745,86.0856,274.0293,4.4117e-05,4.14e-06,0.0,0 STARLINK-4776,1 53837U 22114V   23322.83232370  .00000414  00000-0  44117-4 0  9996,2 53837  53.2163 123.0745 0001377  86.0856 274.0293 15.08837148 65745,6917.889,95.438,540.707,538.802,0.0
53837.0,STARLINK-4776,PAYLOAD,2023-11-19 03:55:28,15.08837326,0.0001399,53.2162,121.5879,88.3015,271.8137,4.3344e-05,4.02e-06,0.0,0 STARLINK-4776,1 53837U 22114V   23323.16352349  .00000402  00000-0  43344-4 0  9990,2 53837  53.2162 121.5879 0001399  88.3015 271.8137 15.08837326 65257,6917.889,95.438,540.721,538.786,0.0
53837.0,STARLINK-4776,PAYLOAD,2023-11-19 10:17:00,15.08838374,0.0001371,53.2167,120.3982,88.793,271.3219,5.2534e-05,5.48e-06,0.0,0 STARLINK-4776,1 53837U 22114V   23323.42848348  .00000548  00000-0  52534-4 0  9990,2 53837  53.2167 120.3982 0001371  88.7930 271.3219 15.08838374 65838,6917.885,95.438,540.699,538.802,0.0
53837.0,STARLINK-4776,PAYLOAD,2023-11-19 18:13:56,15.08842164,0.0001366,53.2172,118.9118,88.8986,271.2162,7.098e-05,8.42e-06,0.0,0 STARLINK-4776,1 53837U 22114V   23323.75968043  .00000842  00000-0  70980-4 0  9993,2 53837  53.2172 118.9118 0001366  88.8986 271.2162 15.08842164 65887,6917.874,95.437,540.684,538.794,0.0
53837.0,STARLINK-4776,PAYLOAD,2023-11-20 10:07:47,15.08840193,0.0001363,53.2173,115.9387,87.7928,272.322,6.8269e-05,7.99e-06,0.0,0 STARLINK-4776,1 53837U 22114V   23324.42208190  .00000799  00000-0  68269-4 0  9996,2 53837  53.2173 115.9387 0001363  87.7928 272.3220 15.08840193 65443,6917.88,95.438,540.688,538.802,0.0
53837.0,STARLINK-4776,PAYLOAD,2023-11-20 13:18:34,15.08840597,0.0001368,53.2174,115.344,87.8585,272.2564,7.1046e-05,8.43e-06,0.0,0 STARLINK-4776,1 53837U 22114V   23324.55456174  .00000843  00000-0  71046-4 0  9994,2 53837  53.2174 115.3440 0001368  87.8585 272.2564 15.08840597 66004,6917.879,95.438,540.69,538.797,0.0
53837.0,STARLINK-4776,PAYLOAD,2023-11-20 19:40:06,15.0884459,0.0001379,53.2174,114.1545,87.7815,272.3335,0.00010768,1.426e-05,0.0,0 STARLINK-4776,1 53837U 22114V   23324.81951779  .00001426  00000-0  10768-3 0  9995,2 53837  53.2174 114.1545 0001379  87.7815 272.3335 15.08844590 66042,6917.866,95.437,540.685,538.777,0.0
53837.0,STARLINK-4776,PAYLOAD,2023-11-21 13:09:21,15.08842697,0.0001413,53.2176,110.8837,87.641,272.4744,6.2014e-05,6.99e-06,0.0,0 STARLINK-4776,1 53837U 22114V   23325.54816039  .00000699  00000-0  62014-4 0  9998,2 53837  53.2176 110.8837 0001413  87.6410 272.4744 15.08842697 66153,6917.872,95.437,540.715,538.76,0.0
53837.0,STARLINK-4776,PAYLOAD,2023-11-21 16:20:07,15.08845367,0.0001466,53.218,110.2891,91.3637,268.7524,7.6191e-05,9.25e-06,0.0,0 STARLINK-4776,1 53837U 22114V   23325.68063797  .00000925  00000-0  76191-4 0  9991,2 53837  53.2180 110.2891 0001466  91.3637 268.7524 15.08845367 66176,6917.864,95.437,540.743,538.715,0.0
53837.0,STARLINK-4776,PAYLOAD,2023-11-22 14:35:30,15.08849958,0.0001519,53.2187,106.1262,96.1707,263.9459,9.2033e-05,1.177e-05,0.0,0 STARLINK-4776,1 53837U 22114V   23326.60799253  .00001177  00000-0  92033-4 0  9990,2 53837  53.2187 106.1262 0001519  96.1707 263.9459 15.08849958 66319,6917.85,95.437,540.766,538.664,0.0
53837.0,STARLINK-4776,PAYLOAD,2023-11-22 16:10:53,15.08851158,0.0001523,53.2188,105.8289,96.2827,263.8339,0.00010144,1.327e-05,0.0,0 STARLINK-4776,1 53837U 22114V   23326.67423122  .00001327  00000-0  10144-3 0  9995,2 53837  53.2188 105.8289 0001523  96.2827 263.8339 15.08851158 66326,6917.846,95.437,540.765,538.658,0.0
53837.0,STARLINK-4776,PAYLOAD,2023-11-23 09:40:09,15.08836131,0.0001723,53.2195,102.5597,111.3089,248.8087,5.6867e-06,-1.98e-06,0.0,0 STARLINK-4776,1 53837U 22114V   23327.40288403 -.00000198  00000-0  56867-5 0  9998,2 53837  53.2195 102.5597 0001723 111.3089 248.8087 15.08836131 65899,6917.892,95.438,540.949,538.565,0.0
53837.0,STARLINK-4776,PAYLOAD,2023-11-23 14:26:18,15.08834004,0.0001622,53.2179,101.6672,107.8923,252.2247,-6.1836e-05,-1.272e-05,0.0,0 STARLINK-4776,1 53837U 22114V   23327.60160345 -.00001272  00000-0 -61836-4 0  9990,2 53837  53.2179 101.6672 0001622 107.8923 252.2247 15.08834004 66468,6917.899,95.438,540.886,538.642,0.0
53837.0,STARLINK-4776,PAYLOAD,2023-11-23 16:01:41,15.08835452,0.0001627,53.2188,101.3697,111.5621,248.5545,-1.461e-05,-5.21e-06,0.0,0 STARLINK-4776,1 53837U 22114V   23327.66784544 -.00000521  00000-0 -14610-4 0  9993,2 53837  53.2188 101.3697 0001627 111.5621 248.5545 15.08835452 66472,6917.894,95.438,540.885,538.634,0.0
53837.0,STARLINK-4776,PAYLOAD,2023-11-24 14:17:05,15.08839147,0.0001737,53.2189,97.2056,112.4884,247.6293,-3.2694e-05,-8.08e-06,0.0,0 STARLINK-4776,1 53837U 22114V   23328.59520740 -.00000808  00000-0 -32694-4 0  9992,2 53837  53.2189  97.2056 0001737 112.4884 247.6293 15.08839147 66619,6917.883,95.438,540.95,538.546,0.0
53837.0,STARLINK-4776,PAYLOAD,2023-11-24 20:38:37,15.08854949,0.0001863,53.2174,96.0135,115.214,244.9045,-0.00010814,-2.01e-05,0.0,0 STARLINK-4776,1 53837U 22114V   23328.86015730 -.00002010  00000-0 -10814-3 0  9996,2 53837  53.2174  96.0135 0001863 115.2140 244.9045 15.08854949 66650,6917.835,95.437,540.988,538.411,0.0
53837.0,STARLINK-4776,PAYLOAD,2023-11-25 14:07:53,15.08838379,0.0001601,53.2181,92.7469,75.1848,284.9321,0.00015186,2.13e-05,0.0,0 STARLINK-4776,1 53837U 22114V   23329.58880996  .00002130  00000-0  15186-3 0  9998,2 53837  53.2181  92.7469 0001601  75.1848 284.9321 15.08838379 66762,6917.885,95.438,540.858,538.643,0.0
53837.0,STARLINK-4776,PAYLOAD,2023-11-25 15:43:15,15.08846799,0.0001568,53.2197,92.4481,96.833,263.284,0.00023615,3.473e-05,0.0,0 STARLINK-4776,1 53837U 22114V   23329.65504199  .00003473  00000-0  23615-3 0  9991,2 53837  53.2197  92.4481 0001568  96.8330 263.2840 15.08846799 66770,6917.86,95.437,540.809,538.64,0.0
53837.0,STARLINK-4776,PAYLOAD,2023-11-26 13:58:39,15.08852321,0.0001568,53.2196,88.284,80.8145,279.3024,0.00019855,2.874e-05,0.0,0 STARLINK-4776,1 53837U 22114V   23330.58239688  .00002874  00000-0  19855-3 0  9998,2 53837  53.2196  88.2840 0001568  80.8145 279.3024 15.08852321 66914,6917.843,95.437,540.792,538.623,0.0
53837.0,STARLINK-4776,PAYLOAD,2023-11-26 15:34:02,15.08855309,0.0001809,53.2188,87.9866,62.0717,298.0458,0.00025372,3.754e-05,0.0,0 STARLINK-4776,1 53837U 22114V   23330.64863780  .00003754  00000-0  25372-3 0  9990,2 53837  53.2188  87.9866 0001809  62.0717 298.0458 15.08855309 66923,6917.834,95.437,540.95,538.447,0.0
53837.0,STARLINK-4776,PAYLOAD,2023-11-27 12:14:04,15.08831592,0.0001445,53.2195,84.1211,78.0951,282.0203,-0.00022247,-3.826e-05,0.0,0 STARLINK-4776,1 53837U 22114V   23331.50977022 -.00003826  00000-0 -22247-3 0  9991,2 53837  53.2195  84.1211 0001445  78.0951 282.0203 15.08831592 66511,6917.906,95.438,540.771,538.771,0.0
53837.0,STARLINK-4776,PAYLOAD,2023-11-27 13:49:27,15.08832121,0.0001457,53.2195,83.8237,77.9162,282.1993,-0.0002039,-3.531e-05,0.0,0 STARLINK-4776,1 53837U 22114V   23331.57601042 -.00003531  00000-0 -20390-3 0  9994,2 53837  53.2195  83.8237 0001457  77.9162 282.1993 15.08832121 67067,6917.904,95.438,540.777,538.762,0.0
53837.0,STARLINK-4776,PAYLOAD,2023-11-27 15:24:50,15.08833982,0.0001428,53.219,83.5255,83.6179,276.4975,-0.00017976,-3.147e-05,0.0,0 STARLINK-4776,1 53837U 22114V   23331.64224913 -.00003147  00000-0 -17976-3 0  9999,2 53837  53.2190  83.5255 0001428  83.6179 276.4975 15.08833982 67072,6917.899,95.438,540.752,538.776,0.0
53837.0,STARLINK-4776,PAYLOAD,2023-11-28 12:04:51,15.08841497,0.0002285,53.2198,79.6682,51.2142,308.9054,4.4827e-05,4.25e-06,0.0,0 STARLINK-4776,1 53837U 22114V   23332.50337049  .00000425  00000-0  44827-4 0  9990,2 53837  53.2198  79.6682 0002285  51.2142 308.9054 15.08841497 66666,6917.876,95.437,541.322,538.16,0.0
53837.0,STARLINK-4776,PAYLOAD,2023-11-28 13:40:14,15.08843884,0.0002428,53.219,79.3709,49.2044,310.9159,7.2984e-05,8.73e-06,0.0,0 STARLINK-4776,1 53837U 22114V   23332.56960990  .00000873  00000-0  72984-4 0  9995,2 53837  53.2190  79.3709 0002428  49.2044 310.9159 15.08843884 67215,6917.869,95.437,541.413,538.054,0.0
53837.0,STARLINK-4776,PAYLOAD,2023-11-29 11:55:38,15.08839304,0.000125,53.2184,75.1978,90.7115,269.4021,0.00020224,2.932e-05,0.0,0 STARLINK-4776,1 53837U 22114V   23333.49697270  .00002932  00000-0  20224-3 0  9993,2 53837  53.2184  75.1978 0001250  90.7115 269.4021 15.08839304 66815,6917.883,95.438,540.612,538.883,0.0
